GLOBALSTAR M079 [+]     
1 37188U 10054A   17290.72595780 -.00000109  00000-0 -28068-4 0  9999
2 37188  52.0064  21.8236 0000296 154.6559   5.7140 12.62269084323117
GLOBALSTAR M074 [+]     
1 37189U 10054B   17290.82182267 -.00000106  00000-0 -11126-4 0  9997
2 37189  52.0040  21.2917 0000540 164.1291 311.1699 12.62266780323600
GLOBALSTAR M076 [+]     
1 37190U 10054C   17290.52214876 -.00000108  00000-0 -22912-4 0  9995
2 37190  52.0053  22.1146 0000291 172.8495 259.2866 12.62263990323344
GLOBALSTAR M077 [+]     
1 37191U 10054D   17290.60766676 -.00000095  00000-0  49823-4 0  9999
2 37191  52.0088 337.9184 0000097 143.3070  18.0372 12.62269854323863
GLOBALSTAR M075 [+]     
1 37192U 10054E   17290.87368493 -.00000112  00000-0 -47741-4 0  9992
2 37192  51.9955  64.8479 0000333 176.1124 355.6412 12.62267574322709
GLOBALSTAR M073 [+]     
1 37193U 10054F   17290.55163282 -.00000083  00000-0  11418-3 0  9994
2 37193  52.0073 337.5374 0000218  68.2116  79.6653 12.62268479324326
GLOBALSTAR M083 [+]     
1 37739U 11033A   17290.56632081 -.00000086  00000-0  97587-4 0  9992
2 37739  51.9854 290.0474 0000674  96.1475  57.4261 12.62271491293507
GLOBALSTAR M088 [+]     
1 37740U 11033B   17290.92921199 -.00000103  00000-0  54617-5 0  9993
2 37740  51.9728 196.7951 0000879 102.0389  23.0776 12.62269064289103
GLOBALSTAR M091 [+]     
1 37741U 11033C   17291.18651491 -.00000076  00000-0  15307-3 0  9998
2 37741  51.9980 154.5521 0000889 110.0424  43.2821 12.62262113289966
GLOBALSTAR M085 [+]     
1 37742U 11033D   17290.93526209 -.00000091  00000-0  69695-4 0  9996
2 37742  51.9850 108.8240 0000914 105.7476  46.6139 12.62269185290518
GLOBALSTAR M081 [+]     
1 37743U 11033E   17290.96407369 -.00000093  00000-0  62829-4 0  9999
2 37743  51.9941 109.7971 0000805 129.7450  33.0691 12.62268495290547
GLOBALSTAR M089 [+]     
1 37744U 11033F   17290.84488747 -.00000115  00000-0 -65432-4 0  9995
2 37744  51.9935  64.9113 0000522  81.6952  78.4140 12.62267042291416
GLOBALSTAR M084 [+]     
1 38040U 11080A   17291.14928420 -.00000092  00000-0  67315-4 0  9993
2 38040  52.0003 289.8144 0000514  31.4433  11.8810 12.62266517269465
GLOBALSTAR M080 [+]     
1 38041U 11080B   17291.21458514 -.00000096  00000-0  42156-4 0  9994
2 38041  52.0055 290.2362 0000437  13.6545  87.8895 12.62269153269455
GLOBALSTAR M082 [+]     
1 38042U 11080C   17290.44752448 -.00000111  00000-0 -39363-4 0  9997
2 38042  52.0067 247.7272 0000759  91.0538  62.4055 12.62262987270036
GLOBALSTAR M092 [+]     
1 38043U 11080D   17291.18348556 -.00000084  00000-0  10829-3 0  9994
2 38043  52.0098 335.6883 0000513  56.0297 324.5480 12.62268926268688
GLOBALSTAR M090 [+]     
1 38044U 11080E   17290.39211175 -.00000114  00000-0 -55353-4 0  9990
2 38044  51.9877 245.3109 0000779  90.5732  52.1151 12.62262599270076
GLOBALSTAR M086 [+]     
1 38045U 11080F   17290.95115797 -.00000121  00000-0 -94810-4 0  9995
2 38045  51.9889 243.9455 0000868 266.3505 136.5777 12.62269131270056
GLOBALSTAR M097 [+]     
1 39072U 13005A   17290.57191001 -.00000075  00000-0  16261-3 0  9995
2 39072  52.0031 156.7800 0000733 117.4910 242.6031 12.62269544217332
GLOBALSTAR M093 [+]     
1 39073U 13005B   17290.94172861 -.00000082  00000-0  12025-3 0  9992
2 39073  51.9794 153.4506 0000994 121.9424 238.1539 12.62264231217345
GLOBALSTAR M094 [+]     
1 39074U 13005C   17290.78303100 -.00000113  00000-0 -51904-4 0  9993
2 39074  51.9964  65.5052 0000564 139.1809 220.9099 12.62267679218840
GLOBALSTAR M096 [+]     
1 39075U 13005D   17291.11342875 -.00000089  00000-0  81352-4 0  9995
2 39075  52.0057 110.8316 0000799 118.1104 241.9843 12.62268130218155
GLOBALSTAR M078 [+]     
1 39076U 13005E   17291.16582174 -.00000097  00000-0  36942-4 0  9993
2 39076  51.9882 198.4118 0000885 101.3813 258.7153 12.62261085216654
GLOBALSTAR M095 [+]     
1 39077U 13005F   17291.19255827 -.00000072  00000-0  17854-3 0  9992
2 39077  51.9791 197.5086 0001249  99.2299 260.8709 12.62264377216654
